{"type":"FeatureCollection","features":[{"type":"Feature","properties":{"name":"Texas","abbr":"TX"},"geometry":{"type":"MultiPolygon","coordinates":[[[[-96.83,28.1118],[-96.8104,28.126],[-96.8229,28.1675],[-96.8164,28.1748],[-96.792,28.1887],[-96.733,28.1909],[-96.7038,28.1982],[-96.6974,28.203],[-96.7033,28.2164],[-96.6625,28.2273],[-96.6519,28.2513],[-96.608,28.2771],[-96.6105,28.2831],[-96.5929,28.297],[-96.5533,28.3023],[-96.5289,28.3225],[-96.451,28.337],[-96.4189,28.3548],[-96.4172,28.3672],[-96.4032,28.3715],[-96.3978,28.3435],[-96.4137,28.3273],[-96.5478,28.2708],[-96.6947,28.1821],[-96.8496,28.0649],[-96.967,27.9505],[-97.0317,27.87],[-97.046,27.835],[-97.0854,27.7932],[-97.1667,27.6766],[-97.2761,27.4721],[-97.3265,27.3476],[-97.3634,27.2104],[-97.377,27.101],[-97.3784,26.9929],[-97.3707,26.9097],[-97.333,26.7365],[-97.2298,26.4336],[-97.1946,26.3065],[-97.1543,26.0668],[-97.1615,26.0676],[-97.1698,26.0779],[-97.184,26.2143],[-97.2149,26.3536],[-97.2403,26.406],[-97.2476,26.4563],[-97.2764,26.5217],[-97.2924,26.528],[-97.3107,26.5566],[-97.3086,26.5767],[-97.3385,26.6474],[-97.3364,26.666],[-97.3458,26.7006],[-97.3631,26.7105],[-97.3704,26.7239],[-97.3642,26.759],[-97.3683,26.7956],[-97.3875,26.8208],[-97.3835,26.8755],[-97.3916,26.902],[-97.3864,27.0832],[-97.3901,27.1565],[-97.3775,27.1995],[-97.3867,27.2047],[-97.3733,27.2765],[-97.367,27.2987],[-97.3576,27.3079],[-97.3668,27.3333],[-97.3618,27.36],[-97.3312,27.4124],[-97.3298,27.4344],[-97.3173,27.4637],[-97.2578,27.5564],[-97.2605,27.5674],[-97.2369,27.5983],[-97.2426,27.6075],[-97.2314,27.6323],[-97.2141,27.6316],[-97.2007,27.6501],[-97.1976,27.6784],[-97.2031,27.688],[-97.19,27.6928],[-97.1662,27.7324],[-97.1473,27.7354],[-97.1308,27.7516],[-97.1033,27.7891],[-97.0926,27.8192],[-97.1261,27.8197],[-97.1345,27.8252],[-97.0567,27.8423],[-97.0136,27.9068],[-97.0164,27.9173],[-96.9857,27.954],[-96.9779,27.9764],[-96.9867,27.9808],[-96.9678,28.02],[-96.9626,28.0124],[-96.9526,28.0164],[-96.9264,28.0434],[-96.9271,28.0573],[-96.906,28.0761],[-96.8909,28.0768],[-96.8862,28.0844],[-96.8869,28.1171],[-96.8794,28.1314],[-96.8708,28.1313],[-96.8454,28.1089],[-96.83,28.1118]]],[[[-100.0004,34.7465],[-100.0004,34.5605],[-99.9546,34.5782],[-99.9232,34.5746],[-99.8848,34.547],[-99.7672,34.4305],[-99.695,34.3783],[-99.6168,34.3754],[-99.5744,34.4183],[-99.5154,34.4143],[-99.4535,34.3888],[-99.4408,34.3741],[-99.4072,34.3726],[-99.3986,34.3758],[-99.3567,34.4421],[-99.2613,34.4035],[-99.2114,34.3379],[-99.2116,34.2922],[-99.1909,34.2153],[-99.1192,34.2017],[-98.9667,34.2012],[-98.8584,34.1527],[-98.7656,34.1364],[-98.7002,34.136],[-98.6523,34.161],[-98.5998,34.1606],[-98.5537,34.1337],[-98.5042,34.0724],[-98.4751,34.0643],[-98.4005,34.1218],[-98.3832,34.1478],[-98.364,34.1571],[-98.3254,34.151],[-98.2939,34.133],[-98.1691,34.1142],[-98.0853,34.0033],[-98.0411,33.9935],[-97.9835,34.0016],[-97.9457,33.9898],[-97.9534,33.9364],[-97.9779,33.8899],[-97.8774,33.8502],[-97.8343,33.8577],[-97.7853,33.8907],[-97.7337,33.9364],[-97.6931,33.9837],[-97.6718,33.9914],[-97.6091,33.9681],[-97.5896,33.9536],[-97.5971,33.9179],[-97.5874,33.9025],[-97.555,33.8973],[-97.501,33.9196],[-97.4581,33.9016],[-97.451,33.8914],[-97.4515,33.8709],[-97.4629,33.8418],[-97.4531,33.8285],[-97.4265,33.8194],[-97.3729,33.8195],[-97.3108,33.8725],[-97.2265,33.9146],[-97.2109,33.9161],[-97.1808,33.8952],[-97.1666,33.8473],[-97.1716,33.8353],[-97.1997,33.8273],[-97.2048,33.7999],[-97.1722,33.7375],[-97.1513,33.7226],[-97.1211,33.7172],[-97.0924,33.7332],[-97.048,33.8179],[-96.9856,33.8865],[-96.9729,33.9357],[-96.9221,33.9596],[-96.9074,33.95],[-96.8994,33.9337],[-96.8957,33.8964],[-96.883,33.868],[-96.8561,33.8475],[-96.7616,33.8244],[-96.7124,33.8316],[-96.6946,33.85],[-96.6786,33.8928],[-96.6723,33.8996],[-96.6586,33.9001],[-96.6154,33.8811],[-96.6129,33.8339],[-96.5003,33.7726],[-96.448,33.781],[-96.4234,33.7764],[-96.3696,33.7168],[-96.3047,33.7459],[-96.2205,33.7474],[-96.1817,33.7585],[-96.1701,33.7692],[-96.1481,33.8378],[-96.0975,33.8475],[-95.9499,33.8575],[-95.8247,33.8377],[-95.7636,33.848],[-95.7572,33.8673],[-95.5997,33.9342],[-95.5594,33.9302],[-95.5491,33.9079],[-95.5521,33.8884],[-95.5443,33.8801],[-95.4078,33.8663],[-95.2876,33.8736],[-95.2555,33.892],[-95.2482,33.9123],[-95.2529,33.9336],[-95.2311,33.9604],[-95.2194,33.9616],[-95.0673,33.9174],[-95.0395,33.8606],[-94.8693,33.7459],[-94.8225,33.7327],[-94.7606,33.7271],[-94.7351,33.6913],[-94.5284,33.616],[-94.4907,33.6256],[-94.4859,33.6379],[-94.4643,33.5988],[-94.3559,33.5432],[-94.2527,33.5861],[-94.1818,33.5932],[-94.0852,33.5755],[-94.0435,33.5523],[-94.0427,31.9993],[-94.0156,31.9799],[-93.9754,31.9237],[-93.9203,31.8887],[-93.84,31.8006],[-93.8125,31.7152],[-93.8349,31.5862],[-93.8186,31.5548],[-93.7981,31.534],[-93.7296,31.4879],[-93.6959,31.4094],[-93.6702,31.3872],[-93.6408,31.3725],[-93.6717,31.2996],[-93.6444,31.2771],[-93.6208,31.2713],[-93.6144,31.2609],[-93.5988,31.1747],[-93.5885,31.1656],[-93.5489,31.1866],[-93.5317,31.1808],[-93.5276,31.0745],[-93.5404,31.0081],[-93.5309,30.9245],[-93.5586,30.8694],[-93.5633,30.8185],[-93.7278,30.5741],[-93.74,30.5388],[-93.7101,30.5064],[-93.6983,30.4387],[-93.7027,30.4299],[-93.7577,30.3904],[-93.7658,30.3333],[-93.7359,30.2994],[-93.7206,30.296],[-93.712,30.1943],[-93.6953,30.1476],[-93.7121,30.0673],[-93.752,30.0164],[-93.7894,29.9878],[-93.8907,29.8432],[-93.8985,29.7716],[-93.838,29.6906],[-93.8529,29.6759],[-93.867,29.6731],[-94.0014,29.6815],[-94.0565,29.6712],[-94.1326,29.6462],[-94.5949,29.4679],[-94.6942,29.4156],[-94.731,29.3691],[-94.7787,29.3615],[-94.7831,29.3756],[-94.7668,29.3935],[-94.7064,29.4368],[-94.6724,29.4768],[-94.6459,29.4738],[-94.6086,29.4833],[-94.5942,29.4921],[-94.5914,29.5139],[-94.5667,29.532],[-94.5323,29.5178],[-94.495,29.525],[-94.5034,29.5433],[-94.5237,29.546],[-94.5425,29.569],[-94.554,29.5739],[-94.7407,29.5259],[-94.7809,29.5311],[-94.7906,29.5484],[-94.7711,29.5484],[-94.7552,29.5628],[-94.7087,29.6252],[-94.6932,29.6945],[-94.6953,29.7231],[-94.7246,29.7748],[-94.7409,29.7871],[-94.8161,29.7567],[-94.8511,29.7214],[-94.8726,29.6713],[-94.8931,29.6613],[-94.9213,29.6582],[-94.9361,29.6927],[-94.966,29.7003],[-94.9727,29.6849],[-95.0054,29.6594],[-95.0156,29.6395],[-95.0135,29.6292],[-94.9827,29.6013],[-95.0183,29.5549],[-95.0152,29.54],[-94.9996,29.5211],[-94.9819,29.5111],[-94.9095,29.4968],[-94.9309,29.4505],[-94.8908,29.4334],[-94.8865,29.3664],[-94.8942,29.338],[-94.894,29.3082],[-94.8865,29.2978],[-94.8651,29.294],[-94.825,29.306],[-94.8223,29.3443],[-94.8107,29.3534],[-94.7849,29.3355],[-94.7313,29.3381],[-94.7225,29.3314],[-94.7311,29.3318],[-94.8037,29.2792],[-95.0818,29.1112],[-95.1105,29.0882],[-95.1251,29.0673],[-95.2389,28.9886],[-95.2971,28.9341],[-95.3535,28.8981],[-95.3824,28.8663],[-95.4396,28.859],[-95.8125,28.6649],[-96.2204,28.492],[-96.3711,28.3977],[-96.3707,28.3877],[-96.3786,28.3839],[-96.3819,28.3933],[-96.3741,28.4043],[-96.3351,28.4378],[-96.2683,28.478],[-96.2238,28.4951],[-96.2151,28.5097],[-96.0462,28.587],[-95.9862,28.6063],[-95.9785,28.6506],[-95.9963,28.6587],[-96.0065,28.648],[-96.0477,28.6491],[-96.1984,28.587],[-96.2289,28.5809],[-96.234,28.6017],[-96.2142,28.6134],[-96.2126,28.6226],[-96.2309,28.6414],[-96.2086,28.6623],[-96.2147,28.6654],[-96.1912,28.6944],[-96.2024,28.701],[-96.2228,28.6984],[-96.2569,28.6847],[-96.2686,28.6888],[-96.2879,28.6832],[-96.3042,28.6715],[-96.3037,28.645],[-96.3734,28.6267],[-96.3846,28.616],[-96.4879,28.5697],[-96.4803,28.5966],[-96.4859,28.6078],[-96.5108,28.615],[-96.4976,28.6251],[-96.4996,28.6358],[-96.5633,28.6445],[-96.5729,28.6679],[-96.5597,28.6913],[-96.578,28.7045],[-96.5841,28.7229],[-96.5938,28.7254],[-96.6488,28.7096],[-96.6645,28.6969],[-96.635,28.6689],[-96.634,28.6547],[-96.6106,28.6389],[-96.6228,28.6221],[-96.6111,28.586],[-96.5653,28.5824],[-96.5612,28.5707],[-96.5261,28.558],[-96.5058,28.5259],[-96.4197,28.4674],[-96.4024,28.4491],[-96.404,28.4425],[-96.5429,28.3855],[-96.5918,28.3575],[-96.6508,28.3468],[-96.6727,28.3356],[-96.6885,28.3473],[-96.6981,28.3427],[-96.7052,28.3488],[-96.7002,28.3697],[-96.7103,28.4068],[-96.7622,28.4119],[-96.776,28.4058],[-96.7948,28.3647],[-96.7918,28.3122],[-96.8096,28.2903],[-96.7872,28.2557],[-96.8004,28.2241],[-96.8727,28.1763],[-96.9348,28.1239],[-96.9628,28.1234],[-97.0004,28.1376],[-97.0274,28.1244],[-97.0228,28.1076],[-97.0355,28.074],[-97.0259,28.0419],[-97.0488,28.0221],[-97.062,27.9961],[-97.0757,27.987],[-97.1292,27.9198],[-97.1358,27.8994],[-97.1551,27.8806],[-97.1872,27.8241],[-97.2252,27.8257],[-97.2284,27.8437],[-97.2508,27.876],[-97.2737,27.8816],[-97.3251,27.8679],[-97.379,27.8379],[-97.3918,27.8139],[-97.3933,27.7829],[-97.3684,27.7417],[-97.3164,27.7127],[-97.254,27.6967],[-97.2966,27.6139],[-97.2941,27.5941],[-97.3215,27.5712],[-97.3434,27.5178],[-97.3505,27.4786],[-97.3658,27.4506],[-97.3729,27.4012],[-97.4019,27.3356],[-97.4203,27.3173],[-97.4508,27.3137],[-97.4829,27.2979],[-97.5083,27.275],[-97.5322,27.2786],[-97.547,27.2908],[-97.5266,27.2918],[-97.5175,27.305],[-97.4981,27.3086],[-97.5027,27.3223],[-97.4839,27.3386],[-97.4869,27.359],[-97.5017,27.3666],[-97.5144,27.3615],[-97.5383,27.3356],[-97.5841,27.3096],[-97.6091,27.2852],[-97.6315,27.2862],[-97.6401,27.2709],[-97.6391,27.2531],[-97.6289,27.243],[-97.5826,27.2404],[-97.5429,27.2292],[-97.52,27.2312],[-97.5002,27.2445],[-97.4503,27.2625],[-97.4241,27.2641],[-97.4449,27.1447],[-97.4437,27.1162],[-97.4523,27.1152],[-97.4617,27.0956],[-97.4806,27.1025],[-97.4915,27.1012],[-97.4958,27.0941],[-97.4933,27.0781],[-97.4775,27.0661],[-97.4877,27.0536],[-97.4867,27.0348],[-97.474,27.0292],[-97.4785,26.9992],[-97.5368,26.9997],[-97.5554,26.9903],[-97.5495,26.9653],[-97.5554,26.9389],[-97.5401,26.901],[-97.5523,26.8885],[-97.5523,26.8676],[-97.5584,26.8643],[-97.5633,26.8422],[-97.5526,26.8279],[-97.5376,26.8249],[-97.5098,26.8035],[-97.4844,26.7636],[-97.4717,26.7587],[-97.4673,26.7101],[-97.4449,26.6335],[-97.4457,26.6094],[-97.417,26.5536],[-97.4223,26.5203],[-97.4307,26.5066],[-97.4264,26.4844],[-97.4414,26.4666],[-97.4414,26.4554],[-97.4259,26.446],[-97.4116,26.4473],[-97.4195,26.4132],[-97.406,26.4091],[-97.3951,26.4172],[-97.3778,26.4091],[-97.3696,26.3946],[-97.389,26.3658],[-97.391,26.3323],[-97.3762,26.3363],[-97.3582,26.3564],[-97.3434,26.3592],[-97.3304,26.3506],[-97.3368,26.3318],[-97.3544,26.3139],[-97.347,26.3114],[-97.3439,26.2674],[-97.332,26.2656],[-97.3119,26.2737],[-97.307,26.2531],[-97.3213,26.2287],[-97.3045,26.2025],[-97.2966,26.2007],[-97.2961,26.1824],[-97.3068,26.1595],[-97.2821,26.1203],[-97.2951,26.1083],[-97.2709,26.0865],[-97.1997,26.077],[-97.1951,26.0419],[-97.205,26.0302],[-97.2261,26.0244],[-97.217,25.9938],[-97.1958,25.9931],[-97.1672,26.0071],[-97.1626,26.0235],[-97.172,26.0447],[-97.1827,26.0531],[-97.165,26.0639],[-97.152,26.0621],[-97.1456,25.9711],[-97.1726,25.9629],[-97.2714,25.9518],[-97.3483,25.9311],[-97.3623,25.9157],[-97.3667,25.8851],[-97.4084,25.8565],[-97.5112,25.8875],[-97.5826,25.9379],[-97.6681,26.0225],[-97.6716,26.034],[-97.8887,26.0649],[-98.0083,26.0611],[-98.0445,26.0437],[-98.2417,26.0745],[-98.3867,26.1579],[-98.4388,26.212],[-98.5858,26.2574],[-98.6233,26.2596],[-98.6329,26.2503],[-98.7057,26.2775],[-98.7512,26.3313],[-98.8073,26.3694],[-98.8614,26.366],[-99.0476,26.4069],[-99.1057,26.4387],[-99.168,26.5578],[-99.2424,26.7883],[-99.2686,26.8432],[-99.3218,26.9068],[-99.3791,26.9345],[-99.4465,27.023],[-99.4523,27.0627],[-99.4299,27.0943],[-99.4263,27.1763],[-99.4415,27.2499],[-99.4524,27.264],[-99.4709,27.2654],[-99.4947,27.2776],[-99.5378,27.3161],[-99.507,27.3564],[-99.4928,27.3905],[-99.4802,27.4858],[-99.5194,27.5736],[-99.5416,27.6058],[-99.6006,27.6413],[-99.6662,27.6383],[-99.8435,27.7746],[-99.8762,27.8063],[-99.9015,27.8642],[-99.9044,27.8753],[-99.8958,27.9042],[-99.922,27.9221],[-99.9914,27.9946],[-100.0834,28.144],[-100.2024,28.1906],[-100.2914,28.2754],[-100.347,28.4072],[-100.3338,28.4993],[-100.387,28.514],[-100.4051,28.5358],[-100.4299,28.5964],[-100.5004,28.662],[-100.512,28.7054],[-100.5076,28.7406],[-100.5354,28.8052],[-100.5468,28.8254],[-100.6401,28.9158],[-100.6515,28.9434],[-100.6459,28.9864],[-100.6747,29.0998],[-100.7977,29.2469],[-100.954,29.3476],[-100.9956,29.3634],[-101.0376,29.4147],[-101.0602,29.4587],[-101.0871,29.4694],[-101.1375,29.4735],[-101.2353,29.5249],[-101.2504,29.6242],[-101.3141,29.6591],[-101.3437,29.662],[-101.4039,29.7576],[-101.455,29.7702],[-101.626,29.7711],[-101.6464,29.7543],[-101.7864,29.782],[-101.9449,29.8015],[-102.05,29.7851],[-102.1161,29.7925],[-102.2625,29.8538],[-102.2973,29.8752],[-102.3234,29.8752],[-102.3646,29.8436],[-102.3867,29.7615],[-102.4868,29.7867],[-102.5549,29.749],[-102.6129,29.7482],[-102.6652,29.7374],[-102.6897,29.7223],[-102.7455,29.593],[-102.7818,29.5425],[-102.8087,29.5223],[-102.8319,29.4379],[-102.8333,29.409],[-102.8758,29.3537],[-102.8959,29.2848],[-102.8863,29.2457],[-102.8713,29.2416],[-102.8668,29.225],[-102.9509,29.1768],[-102.9957,29.1612],[-103.1044,29.0336],[-103.1153,28.9853],[-103.1639,28.9721],[-103.2819,28.9901],[-103.3835,29.0241],[-103.471,29.0754],[-103.4705,29.0851],[-103.5032,29.1191],[-103.5587,29.155],[-103.6101,29.1657],[-103.6271,29.1633],[-103.7149,29.1841],[-103.7678,29.225],[-103.792,29.2627],[-103.8383,29.2783],[-104.0255,29.3144],[-104.1437,29.3833],[-104.1675,29.4029],[-104.2358,29.4967],[-104.2642,29.514],[-104.3216,29.5279],[-104.3944,29.5605],[-104.5155,29.6415],[-104.5386,29.6774],[-104.5491,29.7288],[-104.5661,29.7714],[-104.6333,29.8705],[-104.6799,29.9209],[-104.6936,30.0191],[-104.6858,30.0927],[-104.6873,30.1795],[-104.7089,30.2358],[-104.7616,30.3011],[-104.8595,30.3904],[-104.8728,30.5001],[-104.9298,30.5992],[-104.9721,30.6103],[-105.0444,30.6839],[-105.1293,30.7501],[-105.2112,30.7996],[-105.2655,30.8025],[-105.3946,30.8589],[-105.4118,30.8934],[-105.5568,30.9895],[-105.5777,31.0198],[-105.5853,31.0575],[-105.6033,31.0826],[-105.6488,31.1159],[-105.7095,31.1364],[-105.7505,31.1649],[-105.7937,31.2017],[-105.8694,31.2886],[-105.9231,31.3121],[-105.981,31.3751],[-106.0069,31.3928],[-106.1328,31.4254],[-106.2092,31.4692],[-106.2541,31.5475],[-106.381,31.7321],[-106.4367,31.7569],[-106.4725,31.7518],[-106.5285,31.7839],[-106.5358,31.7986],[-106.5668,31.8133],[-106.6278,31.8606],[-106.6147,31.956],[-106.5986,32.0008],[-103.0644,32.0005],[-103.0645,33.0103],[-103.0435,34.018],[-103.0417,36.4785],[-103.0024,36.5004],[-100.0004,36.4997],[-100.0004,34.7465]]]]}}]}